[{"OBJECT_NAME":"TYVAK-182A","OBJECT_ID":"2021-034D","EPOCH":"2026-03-09T17:04:17.866560","MEAN_MOTION":15.0515042,"ECCENTRICITY":0.00048625,"INCLINATION":97.5843,"RA_OF_ASC_NODE":129.3711,"ARG_OF_PERICENTER":316.565,"MEAN_ANOMALY":43.5193,"EPHEMERIS_TYPE":0,"CLASSIFICATION_TYPE":"U","NORAD_CAT_ID":48271,"ELEMENT_SET_NO":999,"REV_AT_EPOCH":26486,"BSTAR":0.00050672592,"MEAN_MOTION_DOT":7.163e-5,"MEAN_MOTION_DDOT":0},{"OBJECT_NAME":"STARLINK-34705","OBJECT_ID":"2025-158A","EPOCH":"2026-03-09T15:06:28.522656","MEAN_MOTION":15.05649645,"ECCENTRICITY":0.000217,"INCLINATION":97.6031,"RA_OF_ASC_NODE":293.9692,"ARG_OF_PERICENTER":66.89,"MEAN_ANOMALY":293.2555,"EPHEMERIS_TYPE":0,"CLASSIFICATION_TYPE":"U","NORAD_CAT_ID":64932,"ELEMENT_SET_NO":999,"REV_AT_EPOCH":3534,"BSTAR":0.00025057,"MEAN_MOTION_DOT":3.556e-5,"MEAN_MOTION_DDOT":0}]
